start=new Date('2022-08-11T00:00:00.000Z').valueOf();
sats=[{"PERIAPSIS":"501.018","EPOCH":"2022-08-10T22:00:00.999936","MEAN_ANOMALY":"74.6841","BSTAR":"-0.05445400000000","REV_AT_EPOCH":"130","OBJECT_TYPE":"PAYLOAD","INCLINATION":"53.2176","TIME_SYSTEM":"UTC","ARG_OF_PERICENTER":"43.2621","FILE":"3533963","ELEMENT_SET_NO":"999","GP_ID":"209999405","ECCENTRICITY":"0.00017440","EPHEMERIS_TYPE":"0","APOAPSIS":"503.418","COUNTRY_CODE":"US","DECAY_DATE":null,"LAUNCH_DATE":"2022-06-17","NORAD_CAT_ID":"52846","MEAN_MOTION":"15.21201357","SEMIMAJOR_AXIS":"6880.353","MEAN_MOTION_DOT":"-0.01135573","TLE_LINE1":"1 52846U 22062S   22222.91667824 -.01135573  00000-0 -54454-1 0  9990","RA_OF_ASC_NODE":"140.6254","CENTER_NAME":"EARTH","PERIOD":"94.662","OBJECT_ID":"2022-062S","MEAN_MOTION_DDOT":"0.0000000000000","CLASSIFICATION_TYPE":"U","TLE_LINE2":"2 52846  53.2176 140.6254 0001744  43.2621  74.6841 15.21201357  1308","OBJECT_NAME":"STARLINK-4212","RCS_SIZE":"LARGE","MEAN_ELEMENT_THEORY":"SGP4","SITE":"AFETR","REF_FRAME":"TEME"},{"MEAN_ELEMENT_THEORY":"SGP4","RCS_SIZE":"LARGE","REF_FRAME":"TEME","SITE":"AFETR","OBJECT_NAME":"STARLINK-4206","TLE_LINE2":"2 52847  53.2177 140.6337 0001700  48.5399 111.7237 15.22123357  1300","CLASSIFICATION_TYPE":"U","CENTER_NAME":"EARTH","RA_OF_ASC_NODE":"140.6337","TLE_LINE1":"1 52847U 22062T   22222.91667824 -.01134593  00000-0 -52940-1 0  9990","MEAN_MOTION_DDOT":"0.0000000000000","OBJECT_ID":"2022-062T","PERIOD":"94.605","MEAN_MOTION":"15.22123357","SEMIMAJOR_AXIS":"6877.574","MEAN_MOTION_DOT":"-0.01134593","DECAY_DATE":null,"COUNTRY_CODE":"US","APOAPSIS":"500.608","EPHEMERIS_TYPE":"0","NORAD_CAT_ID":"52847","LAUNCH_DATE":"2022-06-17","ELEMENT_SET_NO":"999","ECCENTRICITY":"0.00017000","GP_ID":"209998632","OBJECT_TYPE":"PAYLOAD","BSTAR":"-0.05294000000000","MEAN_ANOMALY":"111.7237","REV_AT_EPOCH":"130","ARG_OF_PERICENTER":"48.5399","FILE":"3533963","TIME_SYSTEM":"UTC","INCLINATION":"53.2177","PERIAPSIS":"498.270","EPOCH":"2022-08-10T22:00:00.999936"},{"EPOCH":"2022-08-10T22:00:00.999936","PERIAPSIS":"502.949","TIME_SYSTEM":"UTC","INCLINATION":"53.2175","FILE":"3533963","ARG_OF_PERICENTER":"43.6906","MEAN_ANOMALY":"45.4979","BSTAR":"-0.05549000000000","REV_AT_EPOCH":"130","OBJECT_TYPE":"PAYLOAD","GP_ID":"209998743","ECCENTRICITY":"0.00016710","ELEMENT_SET_NO":"999","LAUNCH_DATE":"2022-06-17","NORAD_CAT_ID":"52848","EPHEMERIS_TYPE":"0","DECAY_DATE":null,"COUNTRY_CODE":"US","APOAPSIS":"505.249","MEAN_MOTION_DOT":"-0.01136058","SEMIMAJOR_AXIS":"6882.234","MEAN_MOTION":"15.20577527","OBJECT_ID":"2022-062U","PERIOD":"94.701","MEAN_MOTION_DDOT":"0.0000000000000","TLE_LINE1":"1 52848U 22062U   22222.91667824 -.01136058  00000-0 -55490-1 0  9992","CENTER_NAME":"EARTH","RA_OF_ASC_NODE":"140.6191","CLASSIFICATION_TYPE":"U","OBJECT_NAME":"STARLINK-4202","TLE_LINE2":"2 52848  53.2175 140.6191 0001671  43.6906  45.4979 15.20577527  1300","SITE":"AFETR","REF_FRAME":"TEME","RCS_SIZE":"LARGE","MEAN_ELEMENT_THEORY":"SGP4"},{"COUNTRY_CODE":"US","DECAY_DATE":null,"APOAPSIS":"384.171","EPHEMERIS_TYPE":"0","NORAD_CAT_ID":"52849","LAUNCH_DATE":"2022-06-17","ELEMENT_SET_NO":"999","ECCENTRICITY":"0.00013720","GP_ID":"209998500","OBJECT_TYPE":"PAYLOAD","REV_AT_EPOCH":"130","BSTAR":"-0.01335400000000","MEAN_ANOMALY":"154.5641","FILE":"3533963","ARG_OF_PERICENTER":"58.6718","TIME_SYSTEM":"UTC","INCLINATION":"53.2177","PERIAPSIS":"382.316","EPOCH":"2022-08-10T22:00:00.999936","MEAN_ELEMENT_THEORY":"SGP4","RCS_SIZE":"LARGE","REF_FRAME":"TEME","SITE":"AFETR","OBJECT_NAME":"STARLINK-4197","TLE_LINE2":"2 52849  53.2177 135.8495 0001372  58.6718 154.5641 15.61528385  1302","CLASSIFICATION_TYPE":"U","CENTER_NAME":"EARTH","RA_OF_ASC_NODE":"135.8495","TLE_LINE1":"1 52849U 22062V   22222.91667824 -.01061718  00000-0 -13354-1 0  9996","MEAN_MOTION_DDOT":"0.0000000000000","OBJECT_ID":"2022-062V","PERIOD":"92.217","MEAN_MOTION":"15.61528385","SEMIMAJOR_AXIS":"6761.379","MEAN_MOTION_DOT":"-0.01061718"},{"ELEMENT_SET_NO":"999","ECCENTRICITY":"0.00016840","GP_ID":"209999273","DECAY_DATE":null,"COUNTRY_CODE":"US","APOAPSIS":"501.537","EPHEMERIS_TYPE":"0","NORAD_CAT_ID":"52850","LAUNCH_DATE":"2022-06-17","PERIAPSIS":"499.220","EPOCH":"2022-08-10T22:00:00.999936","OBJECT_TYPE":"PAYLOAD","BSTAR":"-0.05344900000000","REV_AT_EPOCH":"130","MEAN_ANOMALY":"97.8917","ARG_OF_PERICENTER":"48.4962","FILE":"3533963","TIME_SYSTEM":"UTC","INCLINATION":"53.2177","OBJECT_NAME":"STARLINK-4187","TLE_LINE2":"2 52850  53.2177 140.6308 0001684  48.4962  97.8917 15.21811447  1300","CLASSIFICATION_TYPE":"U","MEAN_ELEMENT_THEORY":"SGP4","RCS_SIZE":"LARGE","REF_FRAME":"TEME","SITE":"AFETR","MEAN_MOTION":"15.21811447","SEMIMAJOR_AXIS":"6878.514","MEAN_MOTION_DOT":"-0.01134933","CENTER_NAME":"EARTH","RA_OF_ASC_NODE":"140.6308","TLE_LINE1":"1 52850U 22062W   22222.91667824 -.01134933  00000-0 -53449-1 0  9997","MEAN_MOTION_DDOT":"0.0000000000000","OBJECT_ID":"2022-062W","PERIOD":"94.624"},{"SITE":"AFETR","REF_FRAME":"TEME","RCS_SIZE":"LARGE","MEAN_ELEMENT_THEORY":"SGP4","CLASSIFICATION_TYPE":"U","TLE_LINE2":"2 52851  53.2177 135.8558 0001426  54.0138 159.9414 15.61535309  1302","OBJECT_NAME":"STARLINK-3809","PERIOD":"92.217","OBJECT_ID":"2022-062X","MEAN_MOTION_DDOT":"0.0000000000000","TLE_LINE1":"1 52851U 22062X   22222.91667824 -.01061705  00000-0 -13350-1 0  9991","RA_OF_ASC_NODE":"135.8558","CENTER_NAME":"EARTH","SEMIMAJOR_AXIS":"6761.359","MEAN_MOTION_DOT":"-0.01061705","MEAN_MOTION":"15.61535309","LAUNCH_DATE":"2022-06-17","NORAD_CAT_ID":"52851","EPHEMERIS_TYPE":"0","APOAPSIS":"384.188","DECAY_DATE":null,"COUNTRY_CODE":"US","GP_ID":"209999030","ECCENTRICITY":"0.00014260","ELEMENT_SET_NO":"999","INCLINATION":"53.2177","TIME_SYSTEM":"UTC","FILE":"3533963","ARG_OF_PERICENTER":"54.0138","BSTAR":"-0.01335000000000","MEAN_ANOMALY":"159.9414","REV_AT_EPOCH":"130","OBJECT_TYPE":"PAYLOAD","EPOCH":"2022-08-10T22:00:00.999936","PERIAPSIS":"382.259"},{"OBJECT_NAME":"STARLINK-4184","TLE_LINE2":"2 52852  53.2177 135.8430 0001362  59.7057 152.8107 15.61521463  1300","CLASSIFICATION_TYPE":"U","MEAN_ELEMENT_THEORY":"SGP4","RCS_SIZE":"LARGE","REF_FRAME":"TEME","SITE":"AFETR","MEAN_MOTION":"15.61521463","SEMIMAJOR_AXIS":"6761.399","MEAN_MOTION_DOT":"-0.01061671","CENTER_NAME":"EARTH","RA_OF_ASC_NODE":"135.8430","TLE_LINE1":"1 52852U 22062Y   22222.91667824 -.01061671  00000-0 -13357-1 0  9991","MEAN_MOTION_DDOT":"0.0000000000000","OBJECT_ID":"2022-062Y","PERIOD":"92.218","ELEMENT_SET_NO":"999","ECCENTRICITY":"0.00013620","GP_ID":"209999141","COUNTRY_CODE":"US","DECAY_DATE":null,"APOAPSIS":"384.184","EPHEMERIS_TYPE":"0","NORAD_CAT_ID":"52852","LAUNCH_DATE":"2022-06-17","PERIAPSIS":"382.343","EPOCH":"2022-08-10T22:00:00.999936","OBJECT_TYPE":"PAYLOAD","BSTAR":"-0.01335700000000","REV_AT_EPOCH":"130","MEAN_ANOMALY":"152.8107","FILE":"3533963","ARG_OF_PERICENTER":"59.7057","TIME_SYSTEM":"UTC","INCLINATION":"53.2177"},{"NORAD_CAT_ID":"52853","LAUNCH_DATE":"2022-06-17","COUNTRY_CODE":"US","DECAY_DATE":null,"APOAPSIS":"384.096","EPHEMERIS_TYPE":"0","ECCENTRICITY":"0.00013500","GP_ID":"209998898","ELEMENT_SET_NO":"999","ARG_OF_PERICENTER":"60.7410","FILE":"3533963","TIME_SYSTEM":"UTC","INCLINATION":"53.2177","OBJECT_TYPE":"PAYLOAD","REV_AT_EPOCH":"130","BSTAR":"-0.01334300000000","MEAN_ANOMALY":"154.6526","EPOCH":"2022-08-10T22:00:00.999936","PERIAPSIS":"382.271","REF_FRAME":"TEME","SITE":"AFETR","MEAN_ELEMENT_THEORY":"SGP4","RCS_SIZE":"LARGE","OBJECT_NAME":"STARLINK-4189","TLE_LINE2":"2 52853  53.2177 135.8682 0001350  60.7410 154.6526 15.61549169  1300","CLASSIFICATION_TYPE":"U","MEAN_MOTION_DDOT":"0.0000000000000","OBJECT_ID":"2022-062Z","PERIOD":"92.216","CENTER_NAME":"EARTH","RA_OF_ASC_NODE":"135.8682","TLE_LINE1":"1 52853U 22062Z   22222.91667824 -.01061698  00000-0 -13343-1 0  9996","MEAN_MOTION_DOT":"-0.01061698","SEMIMAJOR_AXIS":"6761.319","MEAN_MOTION":"15.61549169"},{"MEAN_MOTION":"15.61542242","SEMIMAJOR_AXIS":"6761.339","MEAN_MOTION_DOT":"-0.01061689","RA_OF_ASC_NODE":"135.8617","CENTER_NAME":"EARTH","TLE_LINE1":"1 52854U 22062AA  22222.91667824 -.01061689  00000-0 -13346-1 0  9990","MEAN_MOTION_DDOT":"0.0000000000000","PERIOD":"92.217","OBJECT_ID":"2022-062AA","TLE_LINE2":"2 52854  53.2177 135.8617 0001466  51.1050 163.5695 15.61542242  1302","OBJECT_NAME":"STARLINK-4204","CLASSIFICATION_TYPE":"U","MEAN_ELEMENT_THEORY":"SGP4","RCS_SIZE":"LARGE","REF_FRAME":"TEME","SITE":"AFETR","PERIAPSIS":"382.212","EPOCH":"2022-08-10T22:00:00.999936","OBJECT_TYPE":"PAYLOAD","MEAN_ANOMALY":"163.5695","BSTAR":"-0.01334600000000","REV_AT_EPOCH":"130","FILE":"3533963","ARG_OF_PERICENTER":"51.1050","INCLINATION":"53.2177","TIME_SYSTEM":"UTC","ELEMENT_SET_NO":"999","ECCENTRICITY":"0.00014660","GP_ID":"209999406","APOAPSIS":"384.195","DECAY_DATE":null,"COUNTRY_CODE":"US","EPHEMERIS_TYPE":"0","NORAD_CAT_ID":"52854","LAUNCH_DATE":"2022-06-17"},{"TLE_LINE1":"1 52855U 22062AB  22222.91667824 -.01061748  00000-0 -13333-1 0  9993","CENTER_NAME":"EARTH","RA_OF_ASC_NODE":"135.8792","OBJECT_ID":"2022-062AB","PERIOD":"92.215","MEAN_MOTION_DDOT":"0.0000000000000","MEAN_MOTION":"15.61569718","MEAN_MOTION_DOT":"-0.01061748","SEMIMAJOR_AXIS":"6761.259","RCS_SIZE":"LARGE","MEAN_ELEMENT_THEORY":"SGP4","SITE":"AFETR","REF_FRAME":"TEME","CLASSIFICATION_TYPE":"U","OBJECT_NAME":"STARLINK-4209","TLE_LINE2":"2 52855  53.2177 135.8792 0001350  60.5179 157.0332 15.61569718  1308","MEAN_ANOMALY":"157.0332","BSTAR":"-0.01333300000000","REV_AT_EPOCH":"130","OBJECT_TYPE":"PAYLOAD","TIME_SYSTEM":"UTC","INCLINATION":"53.2177","ARG_OF_PERICENTER":"60.5179","FILE":"3533963","PERIAPSIS":"382.211","EPOCH":"2022-08-10T22:00:00.999936","EPHEMERIS_TYPE":"0","DECAY_DATE":null,"COUNTRY_CODE":"US","APOAPSIS":"384.037","LAUNCH_DATE":"2022-06-17","NORAD_CAT_ID":"52855","ELEMENT_SET_NO":"999","GP_ID":"209998633","ECCENTRICITY":"0.00013500"}];
